NORAD_CAT_ID,OBJECT_NAME,OBJECT_TYPE,EPOCH,MEAN_MOTION,ECCENTRICITY,INCLINATION,RA_OF_ASC_NODE,ARG_OF_PERICENTER,MEAN_ANOMALY,BSTAR,MEAN_MOTION_DOT,MEAN_MOTION_DDOT,TLE_LINE0,TLE_LINE1,TLE_LINE2,SEMIMAJOR_AXIS,PERIOD,APOGEE,PERIGEE,DECAYED
52299.0,STARLINK-3759,PAYLOAD,2024-05-02 02:18:38,15.08849404,0.0001562,53.2204,256.468,73.9194,286.197,-5.9843e-05,-1.241e-05,0.0,0 STARLINK-3759,1 52299U 22041AQ  24123.09628103 -.00001241  00000-0 -59843-4 0  9990,2 52299  53.2204 256.4680 0001562  73.9194 286.1970 15.08849404113587,6917.852,95.437,540.797,538.636,0.0
52299.0,STARLINK-3759,PAYLOAD,2024-05-02 15:01:43,15.08854376,0.0001095,53.2173,254.0875,95.7027,264.409,-0.00011215,-2.073e-05,0.0,0 STARLINK-3759,1 52299U 22041AQ  24123.62620037 -.00002073  00000-0 -11215-3 0  9991,2 52299  53.2173 254.0875 0001095  95.7027 264.4090 15.08854376112440,6917.836,95.437,540.459,538.944,0.0
52299.0,STARLINK-3759,PAYLOAD,2024-05-03 13:17:06,15.08855861,0.000137,53.2166,249.9253,78.415,281.6995,0.00021907,3.202e-05,0.0,0 STARLINK-3759,1 52299U 22041AQ  24124.55355041  .00003202  00000-0  21907-3 0  9996,2 52299  53.2166 249.9253 0001370  78.4150 281.6995 15.08855861113802,6917.832,95.437,540.645,538.749,0.0
52299.0,STARLINK-3759,PAYLOAD,2024-05-03 14:52:29,15.08858981,0.0001382,53.2171,249.6271,81.9968,278.1181,0.00025733,3.812e-05,0.0,0 STARLINK-3759,1 52299U 22041AQ  24124.61978834  .00003812  00000-0  25733-3 0  9992,2 52299  53.2171 249.6271 0001382  81.9968 278.1181 15.08858981112593,6917.822,95.436,540.643,538.731,0.0
52299.0,STARLINK-3759,PAYLOAD,2024-05-04 13:07:54,15.08830613,8.63e-05,53.2146,245.4604,83.9157,276.1934,-7.561e-06,-4.08e-06,0.0,0 STARLINK-3759,1 52299U 22041AQ  24125.54716393 -.00000408  00000-0 -75610-5 0  9996,2 52299  53.2146 245.4604 0000863  83.9157 276.1934 15.08830613113951,6917.909,95.438,540.371,539.177,0.0
52299.0,STARLINK-3759,PAYLOAD,2024-05-05 12:58:41,15.08844877,0.0001196,53.2178,241.0042,94.3715,265.7414,0.00011171,1.491e-05,0.0,0 STARLINK-3759,1 52299U 22041AQ  24126.54076021  .00001491  00000-0  11171-3 0  9995,2 52299  53.2178 241.0042 0001196  94.3715 265.7414 15.08844877114102,6917.865,95.437,540.558,538.903,0.0
52299.0,STARLINK-3759,PAYLOAD,2024-05-06 14:24:51,15.08860807,0.0001223,53.2189,236.2492,97.1778,262.9354,0.00059109,9.137e-05,0.0,0 STARLINK-3759,1 52299U 22041AQ  24127.60059753  .00009137  00000-0  59109-3 0  9994,2 52299  53.2189 236.2492 0001223  97.1778 262.9354 15.08860807114260,6917.817,95.436,540.528,538.836,0.0
52299.0,STARLINK-3759,PAYLOAD,2024-05-07 12:40:15,15.08847045,8.72e-05,53.2162,232.0856,86.2164,273.8928,0.00010108,1.322e-05,0.0,0 STARLINK-3759,1 52299U 22041AQ  24128.52795715  .00001322  00000-0  10108-3 0  9995,2 52299  53.2162 232.0856 0000872  86.2164 273.8928 15.08847045114409,6917.859,95.437,540.327,539.121,0.0
52299.0,STARLINK-3759,PAYLOAD,2024-05-07 14:15:38,15.08848137,0.0001018,53.2169,231.7877,91.0361,269.0748,0.00013017,1.785e-05,0.0,0 STARLINK-3759,1 52299U 22041AQ  24128.59419667  .00001785  00000-0  13017-3 0  9996,2 52299  53.2169 231.7877 0001018  91.0361 269.0748 15.08848137113196,6917.856,95.437,540.425,539.016,0.0
52299.0,STARLINK-3759,PAYLOAD,2024-05-08 14:06:25,15.08862193,9.3e-05,53.2153,227.3237,111.2267,248.8824,0.00056412,8.707e-05,0.0,0 STARLINK-3759,1 52299U 22041AQ  24129.58778973  .00008707  00000-0  56412-3 0  9991,2 52299  53.2153 227.3237 0000930 111.2267 248.8824 15.08862193113347,6917.813,95.436,540.321,539.034,0.0
52299.0,STARLINK-3759,PAYLOAD,2024-05-08 23:38:44,15.0884041,0.0001335,53.2144,225.5435,68.815,291.2984,0.00011866,1.601e-05,0.0,0 STARLINK-3759,1 52299U 22041AQ  24129.98524142  .00001601  00000-0  11866-3 0  9992,2 52299  53.2144 225.5435 0001335  68.8150 291.2984 15.08840410114624,6917.879,95.438,540.668,538.821,0.0
52299.0,STARLINK-3759,PAYLOAD,2024-05-09 12:21:50,15.08828373,0.0001084,53.2153,223.1624,69.3253,290.7856,-7.0602e-05,-1.411e-05,0.0,0 STARLINK-3759,1 52299U 22041AQ  24130.51516729 -.00001411  00000-0 -70602-4 0  9990,2 52299  53.2153 223.1624 0001084  69.3253 290.7856 15.08828373114704,6917.916,95.438,540.531,539.031,0.0
52299.0,STARLINK-3759,PAYLOAD,2024-05-09 13:57:13,15.0883706,0.0001198,53.2169,222.8657,66.1303,293.9815,0.00011758,1.584e-05,0.0,0 STARLINK-3759,1 52299U 22041AQ  24130.58140545  .00001584  00000-0  11758-3 0  9991,2 52299  53.2169 222.8657 0001198  66.1303 293.9815 15.08837060113498,6917.889,95.438,540.583,538.926,0.0
52299.0,STARLINK-3759,PAYLOAD,2024-05-10 12:12:37,15.08859652,0.00012,53.2159,218.7009,71.056,289.0562,0.00081482,0.00012711,0.0,0 STARLINK-3759,1 52299U 22041AQ  24131.50876322  .00012711  00000-0  81482-3 0  9998,2 52299  53.2159 218.7009 0001200  71.0560 289.0562 15.08859652114853,6917.82,95.436,540.515,538.855,0.0
52299.0,STARLINK-3759,PAYLOAD,2024-05-10 15:23:23,15.08868867,0.0001267,53.2158,218.1059,67.9522,292.1604,0.0013725,0.0002164,0.0,0 STARLINK-3759,1 52299U 22041AQ  24131.64124315  .00021640  00000-0  13725-2 0  9996,2 52299  53.2158 218.1059 0001267  67.9522 292.1604 15.08868867113653,6917.792,95.436,540.534,538.781,0.0
52299.0,STARLINK-3759,PAYLOAD,2024-05-11 12:03:21,15.08987858,0.0001408,53.2164,214.2404,78.0415,282.0735,0.0067341,0.00108988,0.0,0 STARLINK-3759,1 52299U 22041AQ  24132.50233105  .00108988  00000-0  67341-2 0  9994,2 52299  53.2164 214.2404 0001408  78.0415 282.0735 15.08987858115008,6917.428,95.428,540.267,538.32,0.0
52299.0,STARLINK-3759,PAYLOAD,2024-05-11 15:14:07,15.08943822,0.0001844,53.2163,213.646,71.9918,288.1275,0.0031301,0.00050024,0.0,0 STARLINK-3759,1 52299U 22041AQ  24132.63480574  .00050024  00000-0  31301-2 0  9996,2 52299  53.2163 213.6460 0001844  71.9918 288.1275 15.08943822115027,6917.563,95.431,540.704,538.152,0.0
52299.0,STARLINK-3759,PAYLOAD,2024-05-12 11:54:12,15.08649542,0.0001121,53.2164,209.7815,89.4224,270.6896,-0.0032231,-0.00050955,0.0,0 STARLINK-3759,1 52299U 22041AQ  24133.49597779 -.00050955  00000-0 -32231-2 0  9995,2 52299  53.2164 209.7815 0001121  89.4224 270.6896 15.08649542115151,6918.463,95.45,541.103,539.552,0.0
52299.0,STARLINK-3759,PAYLOAD,2024-05-13 11:45:03,15.08860376,0.000137,53.2165,205.3223,65.8229,294.2906,0.0027168,0.0004324,0.0,0 STARLINK-3759,1 52299U 22041AQ  24134.48962673  .00043240  00000-0  27168-2 0  9994,2 52299  53.2165 205.3223 0001370  65.8229 294.2906 15.08860376115307,6917.818,95.436,540.631,538.735,0.0
52299.0,STARLINK-3759,PAYLOAD,2024-05-13 21:17:21,15.08873911,0.0001431,53.2155,203.5386,63.4629,296.6509,0.0017693,0.00028009,0.0,0 STARLINK-3759,1 52299U 22041AQ  24134.88705976  .00028009  00000-0  17693-2 0  9997,2 52299  53.2155 203.5386 0001431  63.4629 296.6509 15.08873911114147,6917.777,95.435,540.632,538.652,0.0
52299.0,STARLINK-3759,PAYLOAD,2024-05-14 11:35:48,15.08887742,0.0001443,53.2163,200.8625,64.8398,295.2743,0.00097153,0.00015228,0.0,0 STARLINK-3759,1 52299U 22041AQ  24135.48320375  .00015228  00000-0  97153-3 0  9999,2 52299  53.2163 200.8625 0001443  64.8398 295.2743 15.08887742115450,6917.734,95.435,540.598,538.601,0.0
52299.0,STARLINK-3759,PAYLOAD,2024-05-14 21:08:06,15.08886291,0.0001343,53.2159,199.0775,63.9725,296.1405,0.00052366,8.066e-05,0.0,0 STARLINK-3759,1 52299U 22041AQ  24135.88063261  .00008066  00000-0  52366-3 0  9990,2 52299  53.2159 199.0775 0001343  63.9725 296.1405 15.08886291114297,6917.739,95.435,540.533,538.675,0.0
52299.0,STARLINK-3759,PAYLOAD,2024-05-15 13:01:56,15.08898742,0.0001439,53.2163,196.1052,71.3418,288.773,0.0006337,9.828e-05,0.0,0 STARLINK-3759,1 52299U 22041AQ  24136.54301080  .00009828  00000-0  63370-3 0  9992,2 52299  53.2163 196.1052 0001439  71.3418 288.7730 15.08898742114399,6917.701,95.434,540.561,538.57,0.0
52299.0,STARLINK-3759,PAYLOAD,2024-05-15 20:58:51,15.08872704,0.0002089,53.2159,194.617,76.7018,283.4207,-6.1831e-05,-1.273e-05,0.0,0 STARLINK-3759,1 52299U 22041AQ  24136.87421169 -.00001273  00000-0 -61831-4 0  9998,2 52299  53.2159 194.6170 0002089  76.7018 283.4207 15.08872704115667,6917.78,95.435,541.091,538.2,0.0
52299.0,STARLINK-3759,PAYLOAD,2024-05-16 12:52:42,15.08877078,0.0001284,53.2168,191.6462,106.7205,253.3928,0.0001567,2.209e-05,0.0,0 STARLINK-3759,1 52299U 22041AQ  24137.53659810  .00002209  00000-0  15670-3 0  9995,2 52299  53.2168 191.6462 0001284 106.7205 253.3928 15.08877078114547,6917.767,95.435,540.52,538.744,0.0
52299.0,STARLINK-3759,PAYLOAD,2024-05-16 20:49:37,15.08859401,0.0001487,53.2163,190.1559,75.9611,284.1546,-0.00011193,-2.07e-05,0.0,0 STARLINK-3759,1 52299U 22041AQ  24137.86780059 -.00002070  00000-0 -11193-3 0  9995,2 52299  53.2163 190.1559 0001487  75.9611 284.1546 15.08859401114599,6917.821,95.436,540.715,538.657,0.0
52299.0,STARLINK-3759,PAYLOAD,2024-05-17 11:08:05,15.08857958,0.0001557,53.2163,187.4777,88.3302,271.7869,5.3611e-06,-2.03e-06,0.0,0 STARLINK-3759,1 52299U 22041AQ  24138.46395646 -.00000203  00000-0  53611-5 0  9994,2 52299  53.2163 187.4777 0001557  88.3302 271.7869 15.08857958114688,6917.825,95.436,540.768,538.613,0.0
52299.0,STARLINK-3759,PAYLOAD,2024-05-17 20:40:25,15.0884696,0.0001726,53.2183,185.6962,88.1977,271.9213,-3.634e-06,-3.46e-06,0.0,0 STARLINK-3759,1 52299U 22041AQ  24138.86140076 -.00000346  00000-0 -36340-5 0  9992,2 52299  53.2183 185.6962 0001726  88.1977 271.9213 15.08846960115968,6917.859,95.437,540.918,538.53,0.0
52299.0,STARLINK-3759,PAYLOAD,2024-05-18 03:01:57,15.0883744,0.0001565,53.2163,184.5064,96.5346,263.5825,-2.1445e-05,-6.29e-06,0.0,0 STARLINK-3759,1 52299U 22041AQ  24139.12636452 -.00000629  00000-0 -21445-4 0  9993,2 52299  53.2163 184.5064 0001565  96.5346 263.5825 15.08837440116006,6917.888,95.438,540.836,538.671,0.0
52299.0,STARLINK-3759,PAYLOAD,2024-05-18 09:23:30,15.08838563,0.0001624,53.216,183.317,95.6335,264.4842,1.9702e-05,2.6e-07,0.0,0 STARLINK-3759,1 52299U 22041AQ  24139.39132486  .00000026  00000-0  19702-4 0  9992,2 52299  53.2160 183.3170 0001624  95.6335 264.4842 15.08838563114826,6917.885,95.438,540.873,538.626,0.0
